      2.10          N: GNSS NAV DATA                        RINEX VERSION / TYPE
fic2rin                                 08/31/2024 00:59:02 PGM / RUN BY / DATE
                                                            END OF HEADER
14 24  8 30 22  0  0.0  .484503339976D-03  .864019966684D-11  .000000000000D+00
     .158000000000D+03 -.243750000000D+01  .534272254584D-08  .108800498880D+00
    -.307336449623D-06  .484706764109D-02  .488013029099D-05  .515368747520D+04
     .511200000000D+06  .465661287308D-07 -.168075282939D+01  .242143869400D-07
     .944728051693D+00  .274406250000D+03 -.285639553787D+01 -.844535178280D-08
    -.353228999120D-09  .100000000000D+01  .232900000000D+04  .000000000000D+00
     .240000000000D+01  .000000000000D+00 -.791624188423D-08  .670000000000D+03
     .504000000000D+06  .400000000000D+01
17 24  8 30 21 59 44.0  .640778802335D-03 -.104591890704D-10  .000000000000D+00
     .370000000000D+02  .402500000000D+02  .397516558160D-08 -.258451197292D+01
     .207498669624D-05  .134851622861D-01  .107772648335D-04  .515379035378D+04
     .511184000000D+06  .149011611938D-06 -.595857038900D+00  .447034835815D-07
     .967546862942D+00  .175718750000D+03 -.130834722587D+01 -.741816613925D-08
    -.518593030053D-09  .100000000000D+01  .232900000000D+04  .000000000000D+00
     .240000000000D+01  .000000000000D+00 -.111758708954D-07  .370000000000D+02
     .505380000000D+06  .400000000000D+01
14 24  8 30 22 29 36.0  .484518241137D-03  .864019966684D-11  .000000000000D+00
     .159000000000D+03 -.143750000000D+01  .536022327481D-08  .367837697414D+00
    -.154599547386D-06  .484720966779D-02  .479258596897D-05  .515368775368D+04
     .512976000000D+06  .447034835815D-07 -.168076782869D+01  .242143869400D-07
     .944727434341D+00  .275000000000D+03 -.285638879382D+01 -.844535178280D-08
    -.352871841386D-09  .100000000000D+01  .232900000000D+04  .000000000000D+00
     .240000000000D+01  .000000000000D+00 -.791624188423D-08  .671000000000D+03
     .505800000000D+06  .400000000000D+01
3  24  8 30 21 59 44.0  .520077068359D-03  .140971678775D-10  .000000000000D+00
     .230000000000D+02 -.394375000000D+02  .420981821297D-08  .385516447976D+00
    -.232085585594D-05  .573926873039D-02  .171549618244D-05  .515366709709D+04
     .511184000000D+06 -.987201929092D-07  .144243470994D+01  .614672899246D-07
     .985485669137D+00  .360906250000D+03  .115291799505D+01 -.826320133836D-08
     .714315468392D-12  .100000000000D+01  .232900000000D+04  .000000000000D+00
     .240000000000D+01  .000000000000D+00  .139698386192D-08  .230000000000D+02
     .506820000000D+06  .400000000000D+01
18 24  8 30 23 44 32.0 -.650180503726D-03 -.272848410532D-11  .000000000000D+00
     .211000000000D+03  .110000000000D+03  .395873632583D-08  .272834045794D+01
     .572018325329D-05  .458188902121D-02  .667385756969D-05  .515360436821D+04
     .517472000000D+06 -.912696123123D-07  .409061971096D+00 -.745058059692D-08
     .974709691680D+00  .257531250000D+03 -.301144013535D+01 -.785211278630D-08
     .223937899341D-09  .100000000000D+01  .232900000000D+04  .000000000000D+00
     .240000000000D+01  .000000000000D+00 -.838190317154D-08  .979000000000D+03
     .510300000000D+06  .400000000000D+01
3  24  8 30 23 59 44.0  .520178582519D-03  .140971678775D-10  .000000000000D+00
     .240000000000D+02 -.376875000000D+02  .412088593715D-08  .143572003884D+01
    -.203214585781D-05  .573947874364D-02  .168196856976D-05  .515366715813D+04
     .518384000000D+06 -.137835741043D-06  .144237513260D+01 -.316649675369D-07
     .985485724728D+00  .357812500000D+03  .115289654720D+01 -.822427114533D-08
     .135719938995D-10  .100000000000D+01  .232900000000D+04  .000000000000D+00
     .240000000000D+01  .000000000000D+00  .139698386192D-08  .240000000000D+02
     .511200000000D+06  .400000000000D+01
17 24  8 30 23 59 44.0  .640703365207D-03 -.104591890704D-10  .000000000000D+00
     .380000000000D+02  .433437500000D+02  .414481550535D-08 -.153432893459D+01
     .225007534027D-05  .134851139737D-01  .104662030935D-04  .515379210281D+04
     .518384000000D+06 -.212341547012D-06 -.595911212220D+00  .253319740295D-06
     .967541061009D+00  .184968750000D+03 -.130842428508D+01 -.782496879850D-08
    -.577881213929D-09  .100000000000D+01  .232900000000D+04  .000000000000D+00
     .240000000000D+01  .000000000000D+00 -.111758708954D-07  .380000000000D+02
     .511200000000D+06  .400000000000D+01
2  24  8 31  0  0  0.0 -.368149951100D-03  .784439180279D-11  .000000000000D+00
     .530000000000D+02  .113875000000D+03  .412267172583D-08 -.128841444916D+01
     .609271228313D-05  .161012973404D-01  .739283859730D-05  .515369342422D+04
     .518400000000D+06 -.242143869400D-06  .305974739316D+00  .150874257088D-06
     .967347423320D+00  .247656250000D+03 -.113969497404D+01 -.811605235187D-08
     .305012705003D-09  .100000000000D+01  .232900000000D+04  .000000000000D+00
     .240000000000D+01  .000000000000D+00 -.176951289177D-07  .530000000000D+02
     .511200000000D+06  .400000000000D+01
1  24  8 31  0  0  0.0  .209597405046D-03 -.886757334229D-11  .000000000000D+00
     .670000000000D+02 -.115625000000D+01  .655955894625D-08 -.147748523233D-01
     .113621354103D-06  .133920223452D-01  .504963099957D-05  .515360240746D+04
     .518400000000D+06 -.763684511185D-07 -.168815559425D+01  .894069671631D-07
     .953447053685D+00  .275781250000D+03  .103501452499D+01 -.860500128999D-08
    -.301798285396D-09  .100000000000D+01  .232900000000D+04  .000000000000D+00
     .340000000000D+01  .630000000000D+02 -.195577740669D-07  .670000000000D+02
     .511200000000D+06  .400000000000D+01
9  24  8 31  0  0  0.0  .336130149662D-03  .158024704433D-10  .000000000000D+00
     .110000000000D+02 -.113531250000D+03  .440482633584D-08 -.955348222522D+00
    -.602193176746D-05  .305207422934D-02  .951811671257D-05  .515361201668D+04
     .518400000000D+06 -.502914190292D-07  .246022204768D+01  .111758708954D-07
     .959462811283D+00  .200625000000D+03  .197225804202D+01 -.797890378194D-08
     .571452374714D-10  .100000000000D+01  .232900000000D+04  .000000000000D+00
     .240000000000D+01  .000000000000D+00  .465661287308D-09  .110000000000D+02
     .511200000000D+06  .400000000000D+01
5  24  8 31  0  0  0.0 -.184978824109D-03 -.125055521494D-11  .000000000000D+00
     .320000000000D+02 -.186250000000D+02  .439339728835D-08 -.113588793601D+01
    -.674277544022D-06  .592394603882D-02  .113062560558D-05  .515366406822D+04
     .518400000000D+06 -.745058059692D-08  .138976672008D+01  .152736902237D-06
     .972420504303D+00  .362593750000D+03  .131855735978D+01 -.837963475971D-08
     .982183769039D-10  .100000000000D+01  .232900000000D+04  .000000000000D+00
     .240000000000D+01  .000000000000D+00 -.107102096081D-07  .320000000000D+02
     .511200000000D+06  .400000000000D+01
7  24  8 31  0  0  0.0 -.440916046500D-04  .511590769747D-11  .000000000000D+00
     .370000000000D+02  .762500000000D+01  .487841749138D-08  .199318090851D+01
     .199303030968D-06  .187124965014D-01  .952742993832D-05  .515361304665D+04
     .518400000000D+06 -.214204192162D-06 -.275086864881D+01 -.407919287682D-06
     .950685475432D+00  .193250000000D+03 -.210306139057D+01 -.790961518151D-08
     .590738892360D-09  .100000000000D+01  .232900000000D+04  .000000000000D+00
     .240000000000D+01  .000000000000D+00 -.107102096081D-07  .370000000000D+02
     .511200000000D+06  .400000000000D+01
12 24  8 31  0  0  0.0 -.534415245056D-03 -.284217094304D-11  .000000000000D+00
     .770000000000D+02 -.196875000000D+01  .496020661252D-08  .126409515795D+01
    -.372529029846D-06  .866664212663D-02  .544264912605D-05  .515359335899D+04
     .518400000000D+06 -.180676579475D-06 -.163484122721D+01 -.143423676491D-06
     .961381479546D+00  .276593750000D+03  .146223238177D+01 -.823248577322D-08
    -.281440294547D-09  .100000000000D+01  .232900000000D+04  .000000000000D+00
     .240000000000D+01  .000000000000D+00 -.125728547573D-07  .770000000000D+02
     .511200000000D+06  .400000000000D+01
10 24  8 31  0  0  0.0 -.109930988401D-03 -.117097442853D-10  .000000000000D+00
     .890000000000D+02 -.249062500000D+02  .410267089271D-08  .513810557015D+00
    -.132806599140D-05  .957475241739D-02  .195205211639D-05  .515368698502D+04
     .518400000000D+06 -.102445483208D-06  .143982447641D+01  .141561031342D-06
     .985132564600D+00  .355406250000D+03 -.237915613637D+01 -.823141430002D-08
    -.357157734196D-11  .100000000000D+01  .232900000000D+04  .000000000000D+00
     .240000000000D+01  .000000000000D+00  .232830643654D-08  .890000000000D+02
     .511200000000D+06  .400000000000D+01
6  24  8 31  0  0  0.0  .636591576040D-04 -.252384779742D-10  .000000000000D+00
     .460000000000D+02  .118906250000D+03  .365943814457D-08  .290820488113D+01
     .615045428276D-05  .299647648353D-02  .645779073238D-05  .515368695641D+04
     .518400000000D+06  .540167093277D-07  .406340261749D+00 -.763684511185D-07
     .989858666284D+00  .272156250000D+03 -.748376582717D+00 -.770817821942D-08
     .202508435289D-09  .100000000000D+01  .232900000000D+04  .000000000000D+00
     .240000000000D+01  .000000000000D+00  .372529029846D-08  .460000000000D+02
     .511200000000D+06  .400000000000D+01
4  24  8 31  0  0  0.0  .434444751590D-03  .727595761418D-11  .000000000000D+00
     .920000000000D+02 -.107781250000D+03  .417053086221D-08 -.177854441622D+01
    -.587105751038D-05  .297188409604D-02  .100042670965D-04  .515371960068D+04
     .518400000000D+06  .000000000000D+00  .252047413840D+01 -.391155481339D-07
     .965833477195D+00  .189187500000D+03 -.299771811005D+01 -.782104006343D-08
     .100004165575D-09  .100000000000D+01  .232900000000D+04  .000000000000D+00
     .240000000000D+01  .000000000000D+00 -.465661287308D-08  .920000000000D+02
     .511200000000D+06  .400000000000D+01
